NORAD_CAT_ID,OBJECT_NAME,OBJECT_TYPE,EPOCH,MEAN_MOTION,ECCENTRICITY,INCLINATION,RA_OF_ASC_NODE,ARG_OF_PERICENTER,MEAN_ANOMALY,BSTAR,MEAN_MOTION_DOT,MEAN_MOTION_DDOT,TLE_LINE0,TLE_LINE1,TLE_LINE2,SEMIMAJOR_AXIS,PERIOD,APOGEE,PERIGEE,DECAYED
51744.0,STARLINK-3452,PAYLOAD,2022-08-09 14:00:01,15.08828476,0.0001673,53.2173,71.4279,62.2969,330.9647,-0.00060066,-9.832e-05,0.0,0 STARLINK-3452,1 51744U 22016AG  22221.58334491 -.00009832  00000-0 -60066-3 0  9993,2 51744  53.2173  71.4279 0001673  62.2969 330.9647 15.08828476  1300,6917.916,95.438,540.938,538.623,0.0
51744.0,STARLINK-3452,PAYLOAD,2022-08-09 22:00:00,15.08807511,0.0001807,53.2173,69.9334,55.1809,349.6587,0.00074849,0.00011634,0.0,0 STARLINK-3452,1 51744U 22016AG  22221.91667824  .00011634  00000-0  74849-3 0  9994,2 51744  53.2173  69.9334 0001807  55.1809 349.6587 15.08807511 27201,6917.98,95.44,541.095,538.595,0.0
51744.0,STARLINK-3452,PAYLOAD,2022-08-10 14:00:01,15.08828711,0.0001702,53.2174,66.9395,60.4453,7.5292,0.00037525,5.687e-05,0.0,0 STARLINK-3452,1 51744U 22016AG  22222.58334491  .00005687  00000-0  37525-3 0  9990,2 51744  53.2174  66.9395 0001702  60.4453   7.5292 15.08828711  1305,6917.915,95.438,540.957,538.602,0.0
51744.0,STARLINK-3452,PAYLOAD,2022-08-10 22:00:00,15.08826068,0.0001875,53.2175,65.4442,55.2981,24.2696,0.0010874,0.00017054,0.0,0 STARLINK-3452,1 51744U 22016AG  22222.91667824  .00017054  00000-0  10874-2 0  9994,2 51744  53.2175  65.4442 0001875  55.2981  24.2696 15.08826068  1309,6917.9230000000025,95.438,541.085,538.491,0.0
51744.0,STARLINK-3452,PAYLOAD,2022-08-11 06:00:02,15.08854091,0.0001774,53.2176,63.9465,56.6767,34.5376,-0.0014688,-0.00023597,0.0,0 STARLINK-3452,1 51744U 22016AG  22223.25002315 -.00023597  00000-0 -14688-2 0  9998,2 51744  53.2176  63.9465 0001774  56.6767  34.5376 15.08854091 27408,6917.837,95.437,540.93,538.475,0.0
51744.0,STARLINK-3452,PAYLOAD,2022-08-11 14:00:01,15.08861383,0.0001733,53.2178,62.4495,60.9765,41.7717,-0.0019328,-0.00030935,0.0,0 STARLINK-3452,1 51744U 22016AG  22223.58334491 -.00030935  00000-0 -19328-2 0  9997,2 51744  53.2178  62.4495 0001733  60.9765  41.7717 15.08861383  1300,6917.815,95.436,540.879,538.481,0.0
51744.0,STARLINK-3452,PAYLOAD,2022-08-12 00:00:00,15.08807454,0.0001815,53.2177,60.5807,51.6044,155.6571,0.0034649999999999,0.00055241,0.0,0 STARLINK-3452,1 51744U 22016AG  22224.00001157  .00055241  00000-0  34650-2 0  9995,2 51744  53.2177  60.5807 0001815  51.6044 155.6571 15.08807454 27516,6917.98,95.44,541.1,538.589,0.0
51744.0,STARLINK-3452,PAYLOAD,2022-08-12 14:00:01,15.08851324,0.0001679,53.2181,57.9601,60.3762,77.1591,0.00054551,8.407e-05,0.0,0 STARLINK-3452,1 51744U 22016AG  22224.58334491  .00008407  00000-0  54551-3 0  9993,2 51744  53.2181  57.9601 0001679  60.3762  77.1591 15.08851324 27600,6917.846,95.437,540.872,538.549,0.0
51744.0,STARLINK-3452,PAYLOAD,2022-08-12 22:00:01,15.08849379,0.0001776,53.2181,56.4652,52.5925,96.6181,-0.00082361,-0.00013375,0.0,0 STARLINK-3452,1 51744U 22016AG  22224.91668981 -.00013375  00000-0 -82361-3 0  9996,2 51744  53.2181  56.4652 0001776  52.5925  96.6181 15.08849379  1309,6917.852,95.437,540.945,538.488,0.0
51744.0,STARLINK-3452,PAYLOAD,2022-08-13 06:00:02,15.08844979,0.0001561999999999,53.218,54.9674,54.5606,106.2504,-0.0019643,-0.00031418,0.0,0 STARLINK-3452,1 51744U 22016AG  22225.25002315 -.00031418  00000-0 -19643-2 0  9997,2 51744  53.2180  54.9674 0001562  54.5606 106.2504 15.08844979 27706,6917.865,95.437,540.811,538.65,0.0
51744.0,STARLINK-3452,PAYLOAD,2022-08-13 14:00:01,15.08830431,0.0001493,53.2183,53.4708,57.8122,114.5209,-0.001207,-0.00019441,0.0,0 STARLINK-3452,1 51744U 22016AG  22225.58334491 -.00019441  00000-0 -12070-2 0  9995,2 51744  53.2183  53.4708 0001493  57.8122 114.5209 15.08830431  1303,6917.91,95.438,540.807,538.742,0.0
51744.0,STARLINK-3452,PAYLOAD,2022-08-13 22:00:00,15.08797075,0.0001618,53.2181,51.976000000000006,49.199,134.714,0.0023656999999999,0.00037519,0.0,0 STARLINK-3452,1 51744U 22016AG  22225.91667824  .00037519  00000-0  23657-2 0  9998,2 51744  53.2181  51.9760 0001618  49.1990 134.7140 15.08797075  1302,6918.012,95.44,540.996,538.757,0.0
51744.0,STARLINK-3452,PAYLOAD,2022-08-14 06:00:02,15.0881417,0.0001503,53.2178,50.4793,52.0942,143.4441,0.0011225999999999,0.00017611,0.0,0 STARLINK-3452,1 51744U 22016AG  22226.25002315  .00017611  00000-0  11226-2 0  9994,2 51744  53.2178  50.4793 0001503  52.0942 143.4441 15.08814170 27856,6917.959,95.439,540.864,538.785,0.0
51744.0,STARLINK-3452,PAYLOAD,2022-08-14 14:00:01,15.08839556,0.000146,53.2183,48.9819,58.2455,148.7991,-0.00044989,-7.441e-05,0.0,0 STARLINK-3452,1 51744U 22016AG  22226.58334491 -.00007441  00000-0 -44989-3 0  9998,2 51744  53.2183  48.9819 0001460  58.2455 148.7991 15.08839556  1307,6917.882,95.438,540.757,538.737,0.0
51744.0,STARLINK-3452,PAYLOAD,2022-08-14 22:00:00,15.08812343,0.0001610999999999,53.2181,47.4871,50.1119,168.5288,0.0027154,0.0004316,0.0,0 STARLINK-3452,1 51744U 22016AG  22226.91667824  .00043160  00000-0  27154-2 0  9994,2 51744  53.2181  47.4871 0001611  50.1119 168.5288 15.08812343  1307,6917.965,95.439,540.944,538.715,0.0
51744.0,STARLINK-3452,PAYLOAD,2022-08-15 14:00:01,15.08856289,0.0001479,53.2181,44.4931,59.0607,182.7503,-0.00084306,-0.00013686,0.0,0 STARLINK-3452,1 51744U 22016AG  22227.58334491 -.00013686  00000-0 -84306-3 0  9994,2 51744  53.2181  44.4931 0001479  59.0607 182.7503 15.08856289  1308,6917.831,95.437,540.719,538.672,0.0
51744.0,STARLINK-3452,PAYLOAD,2022-08-15 16:00:00,15.08859254,0.0001523,53.218,44.1194,56.1165,278.5961,-0.001578,-0.00025327,0.0,0 STARLINK-3452,1 51744U 22016AG  22227.66667824 -.00025327  00000-0 -15780-2 0  9996,2 51744  53.2180  44.1194 0001523  56.1165 278.5961 15.08859254 28061,6917.821999999999,95.436,540.74,538.633,0.0
51744.0,STARLINK-3452,PAYLOAD,2022-08-15 22:00:00,15.08831823,0.0001649,53.218,42.9981,51.5551,201.8701,0.0019794,0.00031348,0.0,0 STARLINK-3452,1 51744U 22016AG  22227.91667824  .00031348  00000-0  19794-2 0  9991,2 51744  53.2180  42.9981 0001649  51.5551 201.8701 15.08831823  1309,6917.905,95.438,540.911,538.63,0.0
51744.0,STARLINK-3452,PAYLOAD,2022-08-16 14:00:01,15.08845859,0.000164,53.218,40.0041,60.9405,215.6719,-0.00094749,-0.00015338,0.0,0 STARLINK-3452,1 51744U 22016AG  22228.58334491 -.00015338  00000-0 -94749-3 0  9993,2 51744  53.2180  40.0041 0001640  60.9405 215.6719 15.08845859 28202,6917.861999999999,95.437,540.862,538.5930000000002,0.0
51744.0,STARLINK-3452,PAYLOAD,2022-08-16 22:00:00,15.08816353,0.0001764,53.218,38.5092,53.2098,235.0037,0.0031853,0.00050738,0.0,0 STARLINK-3452,1 51744U 22016AG  22228.91667824  .00050738  00000-0  31853-2 0  9996,2 51744  53.2180  38.5092 0001764  53.2098 235.0037 15.08816353  1308,6917.953,95.439,541.038,538.597,0.0
51744.0,STARLINK-3452,PAYLOAD,2022-08-17 14:00:01,15.08875223,0.0001643,53.2182,35.5152,58.5668,252.827,-0.0040522,-0.00064266,0.0,0 STARLINK-3452,1 51744U 22016AG  22229.58334491 -.00064266  00000-0 -40522-2 0  9997,2 51744  53.2182  35.5152 0001643  58.5668 252.8270 15.08875223 28352,6917.773,95.435,540.774,538.501,0.0
51744.0,STARLINK-3452,PAYLOAD,2022-08-17 16:00:00,15.08865882,0.0001694,53.2182,35.1417,55.7199,348.5811,-0.003868,-0.00061367,0.0,0 STARLINK-3452,1 51744U 22016AG  22229.66667824 -.00061367  00000-0 -38680-2 0  9996,2 51744  53.2182  35.1417 0001694  55.7199 348.5811 15.08865882  1306,6917.801,95.436,540.8380000000002,538.494,0.0
51744.0,STARLINK-3452,PAYLOAD,2022-08-18 08:00:01,15.08817981,0.0001561,53.2184,32.1477,56.4211,11.0778,0.0034006,0.00054216,0.0,0 STARLINK-3452,1 51744U 22016AG  22230.33334491  .00054216  00000-0  34006-2 0  9994,2 51744  53.2184  32.1477 0001561  56.4211  11.0778 15.08817981 28475,6917.948,95.439,540.893,538.7330000000002,0.0
51744.0,STARLINK-3452,PAYLOAD,2022-08-18 14:00:01,15.08868728,0.0001654,53.2187,31.0264,55.4261,290.7646,-0.001015,-0.00016418,0.0,0 STARLINK-3452,1 51744U 22016AG  22230.58334491 -.00016418  00000-0 -10150-2 0  9999,2 51744  53.2187  31.0264 0001654  55.4261 290.7646 15.08868728  1305,6917.793000000002,95.436,540.802,538.513,0.0
51744.0,STARLINK-3452,PAYLOAD,2022-08-18 22:00:00,15.08846455,0.0001714,53.2187,29.5312,47.3204,310.496,0.0004623999999999,7.08e-05,0.0,0 STARLINK-3452,1 51744U 22016AG  22230.91667824  .00007080  00000-0  46240-3 0  9998,2 51744  53.2187  29.5312 0001714  47.3204 310.4960 15.08846455 28553,6917.861,95.437,540.911,538.54,0.0
51744.0,STARLINK-3452,PAYLOAD,2022-08-19 14:00:01,15.08844859,0.0001535,53.2191,26.5375,49.6854,331.3285,-0.0012062999999999,-0.00019437,0.0,0 STARLINK-3452,1 51744U 22016AG  22231.58334491 -.00019437  00000-0 -12063-2 0  9999,2 51744  53.2191  26.5375 0001535  49.6854 331.3285 15.08844859  1303,6917.866,95.437,540.7919999999998,538.669,0.0
51744.0,STARLINK-3452,PAYLOAD,2022-08-19 16:00:00,15.0883848,0.00016,53.219,26.1639,48.2112,65.7007,-0.00090289,-0.00014628,0.0,0 STARLINK-3452,1 51744U 22016AG  22231.66667824 -.00014628  00000-0 -90289-3 0  9991,2 51744  53.2190  26.1639 0001600  48.2112  65.7007 15.08838480 28678,6917.885,95.438,540.857,538.643,0.0
51744.0,STARLINK-3452,PAYLOAD,2022-08-19 22:00:00,15.088313199999998,0.0001668,53.2189,25.0422,44.0666,348.5363,0.00050841,7.811e-05,0.0,0 STARLINK-3452,1 51744U 22016AG  22231.91667824  .00007811  00000-0  50841-3 0  9993,2 51744  53.2189  25.0422 0001668  44.0666 348.5363 15.08831320  1300,6917.906999999997,95.438,540.9259999999998,538.618,0.0
51744.0,STARLINK-3452,PAYLOAD,2022-08-20 14:00:01,15.08840254,0.0001636999999999,53.2193,22.0488,51.9866,3.7675,-0.0014287,-0.00022954,0.0,0 STARLINK-3452,1 51744U 22016AG  22232.58334491 -.00022954  00000-0 -14287-2 0  9998,2 51744  53.2193  22.0488 0001637  51.9866   3.7675 15.08840254  1301,6917.88,95.438,540.877,538.612,0.0
